[{"OBJECT_NAME":"OBJECT F","OBJECT_ID":"2023-072F","EPOCH":"2026-03-09T23:31:37.259904","MEAN_MOTION":15.29470958,"ECCENTRICITY":0.00062878,"INCLINATION":97.5173,"RA_OF_ASC_NODE":265.798,"ARG_OF_PERICENTER":19.0017,"MEAN_ANOMALY":341.1456,"EPHEMERIS_TYPE":0,"CLASSIFICATION_TYPE":"U","NORAD_CAT_ID":56748,"ELEMENT_SET_NO":999,"REV_AT_EPOCH":15460,"BSTAR":0.00043416252,"MEAN_MOTION_DOT":0.00012341,"MEAN_MOTION_DDOT":0},{"OBJECT_NAME":"STARLINK-30803","OBJECT_ID":"2023-166H","EPOCH":"2026-03-09T17:23:53.240064","MEAN_MOTION":15.30189116,"ECCENTRICITY":0.00011937,"INCLINATION":53.1605,"RA_OF_ASC_NODE":219.5071,"ARG_OF_PERICENTER":81.5677,"MEAN_ANOMALY":278.5459,"EPHEMERIS_TYPE":0,"CLASSIFICATION_TYPE":"U","NORAD_CAT_ID":58157,"ELEMENT_SET_NO":999,"REV_AT_EPOCH":13303,"BSTAR":1.9910261e-5,"MEAN_MOTION_DOT":2.3e-6,"MEAN_MOTION_DDOT":0}]
